NORAD_CAT_ID,OBJECT_NAME,OBJECT_TYPE,EPOCH,MEAN_MOTION,ECCENTRICITY,INCLINATION,RA_OF_ASC_NODE,ARG_OF_PERICENTER,MEAN_ANOMALY,BSTAR,MEAN_MOTION_DOT,MEAN_MOTION_DDOT,TLE_LINE0,TLE_LINE1,TLE_LINE2,SEMIMAJOR_AXIS,PERIOD,APOGEE,PERIGEE,DECAYED
53566.0,STARLINK-4576,PAYLOAD,2024-02-24 12:53:49,15.08847167,0.0001405,53.2158,154.7385,88.6201,271.4952,0.00022677,3.324e-05,0.0,0 STARLINK-4576,1 53566U 22101AR  24055.53738382  .00003324  00000-0  22677-3 0  9995,2 53566  53.2158 154.7385 0001405  88.6201 271.4952 15.08847167 84109,6917.858,95.437,540.695,538.752,0.0
53566.0,STARLINK-4576,PAYLOAD,2024-02-24 16:04:35,15.0885313,0.0001419,53.2156,154.1437,92.026,268.0895,0.00033339,5.024e-05,0.0,0 STARLINK-4576,1 53566U 22101AR  24055.66986109  .00005024  00000-0  33339-3 0  9997,2 53566  53.2156 154.1437 0001419  92.0260 268.0895 15.08853130 84811,6917.84,95.437,540.687,538.724,0.0
53566.0,STARLINK-4576,PAYLOAD,2024-02-25 12:44:36,15.08851085,0.0001692,53.2166,150.2741,109.6819,250.4356,0.00026223,3.889e-05,0.0,0 STARLINK-4576,1 53566U 22101AR  24056.53097989  .00003889  00000-0  26223-3 0  9994,2 53566  53.2166 150.2741 0001692 109.6819 250.4356 15.08851085 84943,6917.847,95.437,540.882,538.541,0.0
53566.0,STARLINK-4576,PAYLOAD,2024-02-25 15:55:22,15.08853149,0.0001701,53.2166,149.6792,109.1889,250.9288,0.00030258,4.533e-05,0.0,0 STARLINK-4576,1 53566U 22101AR  24056.66345819  .00004533  00000-0  30258-3 0  9996,2 53566  53.2166 149.6792 0001701 109.1889 250.9288 15.08853149 84272,6917.84,95.437,540.882,538.528,0.0
53566.0,STARLINK-4576,PAYLOAD,2024-02-26 11:00:00,15.08840752,0.0001816,53.2164,146.1111,114.6973,245.4208,-1.8585e-05,-5.84e-06,0.0,0 STARLINK-4576,1 53566U 22101AR  24057.45834335 -.00000584  00000-0 -18585-4 0  9994,2 53566  53.2164 146.1111 0001816 114.6973 245.4208 15.08840752 84399,6917.878,95.438,540.999,538.487,0.0
53566.0,STARLINK-4576,PAYLOAD,2024-02-26 12:35:24,15.08840176,0.0001765,53.2169,145.8146,112.0894,248.0286,-1.5864e-05,-5.41e-06,0.0,0 STARLINK-4576,1 53566U 22101AR  24057.52458382 -.00000541  00000-0 -15864-4 0  9996,2 53566  53.2169 145.8146 0001765 112.0894 248.0286 15.08840176 85098,6917.88,95.438,540.966,538.524,0.0
53566.0,STARLINK-4576,PAYLOAD,2024-02-26 15:46:10,15.0883972,0.000166,53.2162,145.2208,102.6307,257.4871,-8.1896e-06,-4.18e-06,0.0,0 STARLINK-4576,1 53566U 22101AR  24057.65706473 -.00000418  00000-0 -81896-5 0  9999,2 53566  53.2162 145.2208 0001660 102.6307 257.4871 15.08839720 85112,6917.881,95.438,540.895,538.598,0.0
53566.0,STARLINK-4576,PAYLOAD,2024-02-27 12:26:10,15.08851166,0.0001399,53.2153,141.3571,90.9092,269.206,0.00016855,2.396e-05,0.0,0 STARLINK-4576,1 53566U 22101AR  24058.51817976  .00002396  00000-0  16855-3 0  9992,2 53566  53.2153 141.3571 0001399  90.9092 269.2060 15.08851166 84557,6917.846,95.437,540.679,538.743,0.0
53566.0,STARLINK-4576,PAYLOAD,2024-02-27 21:58:29,15.08840086,0.0001392,53.2148,139.5735,89.3664,270.7487,0.00014846,2.076e-05,0.0,0 STARLINK-4576,1 53566U 22101AR  24058.91562493  .00002076  00000-0  14846-3 0  9990,2 53566  53.2148 139.5735 0001392  89.3664 270.7487 15.08840086 85305,6917.88,95.438,540.708,538.782,0.0
53566.0,STARLINK-4576,PAYLOAD,2024-02-28 10:41:35,15.08837488,0.0001571,53.2161,137.198,106.5465,253.5699,0.00014127,1.961e-05,0.0,0 STARLINK-4576,1 53566U 22101AR  24059.44554759  .00001961  00000-0  14127-3 0  9999,2 53566  53.2161 137.1980 0001571 106.5465 253.5699 15.08837488 85380,6917.888,95.438,540.84,538.666,0.0
53566.0,STARLINK-4576,PAYLOAD,2024-02-29 12:07:45,15.08836132,0.0001657,53.2165,132.4401,105.0789,255.0386,-3.5934e-05,-8.6e-06,0.0,0 STARLINK-4576,1 53566U 22101AR  24060.50539083 -.00000860  00000-0 -35934-4 0  9990,2 53566  53.2165 132.4401 0001657 105.0789 255.0386 15.08836132 84854,6917.892,95.438,540.904,538.611,0.0
53566.0,STARLINK-4576,PAYLOAD,2024-02-29 13:43:09,15.08837779,0.0001678,53.2174,132.1425,107.4562,252.6614,-2.1985e-06,-3.23e-06,0.0,0 STARLINK-4576,1 53566U 22101AR  24060.57163416 -.00000323  00000-0 -21985-5 0  9996,2 53566  53.2174 132.1425 0001678 107.4562 252.6614 15.08837779 85558,6917.887,95.438,540.913,538.591,0.0
53566.0,STARLINK-4576,PAYLOAD,2024-02-29 21:40:04,15.08835289,0.0001155,53.2175,130.6558,102.9642,257.148,5.1248e-05,5.28e-06,0.0,0 STARLINK-4576,1 53566U 22101AR  24060.90283330  .00000528  00000-0  51248-4 0  9990,2 53566  53.2175 130.6558 0001155 102.9642 257.1480 15.08835289 85609,6917.895,95.438,540.559,538.961,0.0
53566.0,STARLINK-4576,PAYLOAD,2024-03-01 10:23:09,15.08848936,0.0001336,53.2158,128.2717,87.1174,272.9971,0.00018364,2.637e-05,0.0,0 STARLINK-4576,1 53566U 22101AR  24061.43274313  .00002637  00000-0  18364-3 0  9994,2 53566  53.2158 128.2717 0001336  87.1174 272.9971 15.08848936 84999,6917.853,95.437,540.642,538.794,0.0
53566.0,STARLINK-4576,PAYLOAD,2024-03-01 13:33:54,15.08853475,0.000145,53.2168,127.6767,86.9738,273.142,0.00022414,3.282e-05,0.0,0 STARLINK-4576,1 53566U 22101AR  24061.56521924  .00003282  00000-0  22414-3 0  9999,2 53566  53.2168 127.6767 0001450  86.9738 273.1420 15.08853475 85704,6917.839,95.437,540.707,538.701,0.0
53566.0,STARLINK-4576,PAYLOAD,2024-03-02 11:49:19,15.08847559,0.0001424,53.2167,123.515,86.8724,273.2431,0.00014334,1.994e-05,0.0,0 STARLINK-4576,1 53566U 22101AR  24062.49258389  .00001994  00000-0  14334-3 0  9994,2 53566  53.2167 123.5150 0001424  86.8724 273.2431 15.08847559 85157,6917.857,95.437,540.707,538.737,0.0
53566.0,STARLINK-4576,PAYLOAD,2024-03-03 03:43:11,15.08842439,0.0001749,53.2183,120.5424,89.5216,270.5977,-1.8805e-05,-5.87e-06,0.0,0 STARLINK-4576,1 53566U 22101AR  24063.15499235 -.00000587  00000-0 -18805-4 0  9992,2 53566  53.2183 120.5424 0001749  89.5216 270.5977 15.08842439 85250,6917.873,95.437,540.948,538.528,0.0
53566.0,STARLINK-4576,PAYLOAD,2024-03-03 10:04:43,15.08843478,0.0001696,53.2181,119.3519,89.3839,270.7347,-1.2594e-05,-4.89e-06,0.0,0 STARLINK-4576,1 53566U 22101AR  24063.41994938 -.00000489  00000-0 -12594-4 0  9991,2 53566  53.2181 119.3519 0001696  89.3839 270.7347 15.08843478 85986,6917.87,95.437,540.908,538.561,0.0
53566.0,STARLINK-4576,PAYLOAD,2024-03-04 03:33:58,15.08797248,0.0002015,53.2178,116.0813,98.9682,261.1538,0.00083895,0.00013074,0.0,0 STARLINK-4576,1 53566U 22101AR  24064.14858817  .00013074  00000-0  83895-3 0  9990,2 53566  53.2178 116.0813 0002015  98.9682 261.1538 15.08797248 85407,6918.011,95.44,541.27,538.482,0.0
53566.0,STARLINK-4576,PAYLOAD,2024-03-04 09:55:29,15.08857201,0.0001502,53.2152,114.8916,85.4986,274.6178,0.00024826,3.667e-05,0.0,0 STARLINK-4576,1 53566U 22101AR  24064.41353882  .00003667  00000-0  24826-3 0  9998,2 53566  53.2152 114.8916 0001502  85.4986 274.6178 15.08857201 85446,6917.828,95.436,540.732,538.654,0.0
53566.0,STARLINK-4576,PAYLOAD,2024-03-05 09:46:18,15.08825241,0.00015,53.2152,110.431,99.958,260.1582,-0.00015657,-2.778e-05,0.0,0 STARLINK-4576,1 53566U 22101AR  24065.40715638 -.00002778  00000-0 -15657-3 0  9995,2 53566  53.2152 110.4310 0001500  99.9580 260.1582 15.08825241 86285,6917.926,95.438,540.828,538.753,0.0
53566.0,STARLINK-4576,PAYLOAD,2024-03-06 09:37:05,15.08841225,0.0001528,53.2158,105.9701,99.3005,260.816,0.00073025,0.00011353,0.0,0 STARLINK-4576,1 53566U 22101AR  24066.40076102  .00011353  00000-0  73025-3 0  9992,2 53566  53.2158 105.9701 0001528  99.3005 260.8160 15.08841225 85749,6917.877,95.437,540.799,538.685,0.0
53566.0,STARLINK-4576,PAYLOAD,2024-03-06 12:47:51,15.08847268,0.0001504,53.216,105.3746,97.7342,262.3821,0.00079513,0.00012392,0.0,0 STARLINK-4576,1 53566U 22101AR  24066.53324027  .00012392  00000-0  79513-3 0  9990,2 53566  53.2160 105.3746 0001504  97.7342 262.3821 15.08847268 86458,6917.858,95.437,540.764,538.683,0.0
53566.0,STARLINK-4576,PAYLOAD,2024-03-07 11:03:15,15.08841434,0.0001557,53.2159,101.2138,98.2158,261.9011,0.00024745,3.653e-05,0.0,0 STARLINK-4576,1 53566U 22101AR  24067.46060001  .00003653  00000-0  24745-3 0  9999,2 53566  53.2159 101.2138 0001557  98.2158 261.9011 15.08841434 86595,6917.876,95.437,540.818,538.664,0.0
53566.0,STARLINK-4576,PAYLOAD,2024-03-08 10:54:02,15.08849305,0.0001476,53.2156,96.7527,90.9095,269.2066,0.00015453,2.173e-05,0.0,0 STARLINK-4576,1 53566U 22101AR  24068.45419451  .00002173  00000-0  15453-3 0  9998,2 53566  53.2156  96.7527 0001476  90.9095 269.2066 15.08849305 86744,6917.852,95.437,540.738,538.696,0.0
53566.0,STARLINK-4576,PAYLOAD,2024-03-08 18:50:58,15.08847954,0.0001493,53.2155,95.2658,87.9961,272.1202,0.000189,2.722e-05,0.0,0 STARLINK-4576,1 53566U 22101AR  24068.78539405  .00002722  00000-0  18900-3 0  9996,2 53566  53.2155  95.2658 0001493  87.9961 272.1202 15.08847954 86102,6917.856,95.437,540.754,538.688,0.0
53566.0,STARLINK-4576,PAYLOAD,2024-03-09 01:12:31,15.08835911,0.0001659,53.2154,94.0771,97.2873,262.8307,-6.2123e-05,-1.277e-05,0.0,0 STARLINK-4576,1 53566U 22101AR  24069.05036282 -.00001277  00000-0 -62123-4 0  9995,2 53566  53.2154  94.0771 0001659  97.2873 262.8307 15.08835911 86140,6917.893,95.438,540.906,538.61,0.0
53566.0,STARLINK-4576,PAYLOAD,2024-03-09 10:44:49,15.0884098,0.0001521,53.2149,92.2915,90.3327,269.7839,0.00020586,2.99e-05,0.0,0 STARLINK-4576,1 53566U 22101AR  24069.44779835  .00002990  00000-0  20586-3 0  9993,2 53566  53.2149  92.2915 0001521  90.3327 269.7839 15.08840980 86205,6917.877,95.437,540.795,538.69,0.0
53566.0,STARLINK-4576,PAYLOAD,2024-03-09 18:41:45,15.0884243,0.0001503,53.2143,90.8032,88.8328,271.2836,0.00032172,4.836e-05,0.0,0 STARLINK-4576,1 53566U 22101AR  24069.77899858  .00004836  00000-0  32172-3 0  9992,2 53566  53.2143  90.8032 0001503  88.8328 271.2836 15.08842430 86944,6917.873,95.437,540.778,538.698,0.0
53566.0,STARLINK-4576,PAYLOAD,2024-03-10 07:24:50,15.08837531,0.0001393,53.2138,88.4239,92.3903,267.7249,0.0002354,3.46e-05,0.0,0 STARLINK-4576,1 53566U 22101AR  24070.30892129  .00003460  00000-0  23540-3 0  9998,2 53566  53.2138  88.4239 0001393  92.3903 267.7249 15.08837531 86333,6917.888,95.438,540.717,538.789,0.0
